{
  "norad_id": 46805,
  "name": "COSMOS 2547 [GLONASS-K]",
  "history": [
    {
      "epoch": "2026-03-27T18:17:20.941152Z",
      "apogee_km": 19148.83136521614,
      "perigee_km": 19111.22773625038,
      "latitude_deg": -4.036537131373632e-05,
      "longitude_deg": 95.65824710826341,
      "height_km": 19142.02053392196,
      "semi_major_axis_km": 25508.16655073326,
      "eccentricity": 0.00073709,
      "inclination_deg": 64.5985,
      "raan_deg": 195.1905,
      "arg_perigee_deg": 232.5213,
      "mean_anomaly_deg": 127.4084,
      "mean_motion_rev_day": 2.13100219
    }
  ]
}